OBJECT_NAME,OBJECT_ID,EPOCH,MEAN_MOTION,ECCENTRICITY,INCLINATION,RA_OF_ASC_NODE,ARG_OF_PERICENTER,MEAN_ANOMALY,EPHEMERIS_TYPE,CLASSIFICATION_TYPE,NORAD_CAT_ID,ELEMENT_SET_NO,REV_AT_EPOCH,BSTAR,MEAN_MOTION_DOT,MEAN_MOTION_DDOT
COSMOS 2534 (758),2019-030A,2026-06-24T12:18:01.016064,2.13102365,.00134625,64.3690,192.3697,274.9296,83.9383,0,U,44299,999,5507,0,.105E-5,0
BEIDOU-3 IGSO-2 (C39),2019-035A,2026-06-25T16:15:04.743072,1.00264102,.0039503,55.2491,158.7880,216.5820,261.6369,0,U,44337,999,2575,0,-.65E-6,0
GPS BIII-2  (PRN 18),2019-056A,2026-06-25T13:46:59.277216,2.00570153,.0062392,55.6328,330.8088,197.6754,125.8238,0,U,44506,999,5023,0,-.105E-5,0
BEIDOU-3 M24 (C46),2019-061A,2026-06-25T20:00:34.133760,1.86229199,.0008494,54.3964,182.4358,358.5395,1.4898,0,U,44542,999,4595,0,.1E-5,0
BEIDOU-3 M23 (C45),2019-061B,2026-06-23T13:15:09.144288,1.86227312,.00058235,54.3954,182.4810,338.7823,203.1503,0,U,44543,999,4591,0,.102E-5,0
EUTELSAT 5 WEST B (EGNOS/PRN 121),2019-067A,2026-06-26T03:58:32.400192,1.00271519,.0003401,0.0622,4.1651,90.3658,234.3936,0,U,44624,999,2452,0,-.31E-6,0
BEIDOU-3 M22 (C44),2019-078A,2026-06-22T23:43:57.808992,1.86227077,.00062495,53.9301,299.6233,51.2109,308.8401,0,U,44793,999,4475,0,-.107E-5,0
BEIDOU-3 M21 (C43),2019-078B,2026-06-20T10:39:18.276192,1.86227692,.00039213,53.9054,299.6746,48.8810,311.1504,0,U,44794,999,4471,0,-.92E-6,0
COSMOS 2544 (759),2019-088A,2026-06-25T22:41:15.294624,2.13102928,.0012923,65.5707,73.4383,257.6247,102.2670,0,U,44850,999,5090,0,-.63E-6,0
BEIDOU-3 M19 (C41),2019-090A,2026-06-24T06:00:48.320064,1.86231520,.00175865,56.5650,62.5564,297.6479,291.8664,0,U,44864,999,4436,0,-.95E-6,0
BEIDOU-3 M20 (C42),2019-090B,2026-06-26T03:47:24.031392,1.86231543,.0015273,56.5685,62.5279,312.0808,205.8058,0,U,44865,999,4438,0,-.87E-6,0
BEIDOU-3 G2 (C60),2020-017A,2026-06-26T04:22:45.078816,1.00272020,.0002515,2.8828,47.4963,38.0490,334.5435,0,U,45344,999,2335,0,-.133E-5,0
COSMOS 2545 (760),2020-018A,2026-06-22T09:16:10.221888,2.13102345,.00085514,64.3518,312.2361,229.7005,130.2180,0,U,45358,999,4877,0,-.76E-6,0
BEIDOU-3 G3 (C61),2020-040A,2026-06-26T02:48:42.261984,1.00274910,.0002647,2.4697,67.4783,327.9839,31.4867,0,U,45807,999,2215,0,-.345E-5,0
GPS BIII-3  (PRN 23),2020-041A,2026-06-24T17:08:03.225408,2.00558689,.00644566,56.6750,28.6507,204.5351,155.8006,0,U,45854,999,4419,0,-.91E-6,0
GALAXY 30 (WAAS/PRN 135),2020-056C,2026-06-26T05:19:38.387712,1.00270659,.0002311,0.0265,13.9515,78.9158,136.3766,0,U,46114,999,2138,0,0,0
COSMOS 2547 (705K),2020-075A,2026-06-23T01:04:53.845824,2.13100075,.00093897,64.5998,192.2800,239.8936,120.0622,0,U,46805,999,4403,0,.94E-6,0
GPS BIII-4  (PRN 14),2020-078A,2026-06-25T17:53:47.234112,2.00565119,.0073802,53.9789,210.4312,207.4080,154.5186,0,U,46826,999,4168,0,.82E-6,0
GPS BIII-5  (PRN 11),2021-054A,2026-06-26T05:27:32.239872,2.00568733,.0025666,55.1700,332.0958,228.3477,307.7469,0,U,48859,999,3693,0,-.105E-5,0
QZS-1R (QZSS/PRN 196),2021-096A,2026-06-25T14:54:03.356352,1.00253341,.0755538,37.4786,79.4571,271.9543,279.2646,0,U,49336,999,1709,0,-.314E-5,0
GSAT0223 (GALILEO 27),2021-116A,2026-06-23T10:34:17.397696,1.70476308,.00016008,57.1590,341.5051,183.5383,174.0725,0,U,49809,999,2828,0,-.98E-6,0
GSAT0224 (GALILEO 28),2021-116B,2026-06-25T14:50:06.558144,1.70476480,.0001373,57.1582,341.4455,160.1269,206.5880,0,U,49810,999,2835,0,-.97E-6,0
COSMOS 2557 (706K),2022-075A,2026-06-26T00:35:49.623360,2.13102178,.0010253,64.2930,314.1731,273.5996,86.2722,0,U,52984,999,3090,0,-.87E-6,0
COSMOS 2559 (707K),2022-130A,2026-06-23T23:13:10.532928,2.13101763,.00126998,64.2669,314.3295,178.7771,181.2176,0,U,54031,999,2883,0,-.84E-6,0
COSMOS 2564 (761),2022-161A,2026-06-26T03:46:07.714272,2.13102114,.0012257,64.7425,192.4139,225.0447,134.9097,0,U,54377,999,2782,0,.107E-5,0
GPS BIII-6  (PRN 28),2023-009A,2026-06-25T22:24:46.711872,2.00571086,.0006265,55.1240,148.1750,317.1527,45.3707,0,U,55268,999,2542,0,.44E-6,0
BEIDOU-3 G4 (C62),2023-066A,2026-06-25T23:31:56.248896,1.00271455,.0004763,0.4767,333.7791,175.6226,257.7516,0,U,56564,999,1148,0,-.27E-5,0
NVS-01 (IRNSS-1J),2023-076A,2026-06-26T01:11:35.680128,1.00275244,.0002824,2.1451,243.9370,13.4701,164.2034,0,U,56759,999,1120,0,-.322E-5,0
COSMOS 2569 (703K),2023-114A,2026-06-25T16:48:06.561216,2.13103824,.0010339,65.3068,72.3334,296.6774,63.2538,0,U,57517,999,2244,0,-.65E-6,0
BEIDOU-3 M28 (C50),2023-207A,2026-06-25T21:22:28.660800,1.86229896,.0003,55.7603,62.0093,352.4663,7.5702,0,U,58654,999,1700,0,-.9E-6,0
BEIDOU-3 M26 (C48),2023-207B,2026-06-25T03:37:39.027360,1.86229846,.0002738,55.7619,62.0208,322.0424,37.9767,0,U,58655,999,1697,0,-.94E-6,0
